0 DELTA 1 DEB
1 21547U 75052HB  13283.00062595  .00000625  00000-0  82389-3 0  3228
2 21547 099.8353 077.2900 0259264 227.3264 251.6124 13.52268598104158
0 DELTA 1 DEB
1 21547U 75052HB  13285.42387506  .00000557  00000-0  73940-3 0  3236
2 21547 099.8352 079.6944 0259311 221.3269 168.3833 13.52272054104482
0 DELTA 1 DEB
1 21547U 75052HB  13288.38854752  .00000854  00000-0  11041-2 0  3240
2 21547 099.8358 082.6362 0259360 213.9916 200.9313 13.52276907104887
0 DELTA 1 DEB
1 21547U 75052HB  13290.99243554  .00000725  00000-0  94469-3 0  3256
2 21547 099.8363 085.2201 0259388 207.5437 277.1691 13.52281568105235
0 DELTA 1 DEB
1 21547U 75052HB  13293.42004579  .00000861  00000-0  11122-2 0  3265
2 21547 099.8366 087.6291 0259396 201.5507 215.2726 13.52285579105568
0 DELTA 1 DEB
1 21547U 75052HB  13295.94866972  .00000882  00000-0  11369-2 0  3274
2 21547 099.8366 090.1386 0259401 195.2978 285.1786 13.52290370105905
